OBJECT_NAME,OBJECT_ID,EPOCH,MEAN_MOTION,ECCENTRICITY,INCLINATION,RA_OF_ASC_NODE,ARG_OF_PERICENTER,MEAN_ANOMALY,EPHEMERIS_TYPE,CLASSIFICATION_TYPE,NORAD_CAT_ID,ELEMENT_SET_NO,REV_AT_EPOCH,BSTAR,MEAN_MOTION_DOT,MEAN_MOTION_DDOT
ONEWEB-0248,2021-045AH,2026-07-02T11:25:29.656416,13.15548559,.000218,87.9002,256.1455,112.8875,247.2485,0,U,48798,999,24642,-.20009E-3,-.63E-6,0
ONEWEB-0225,2021-045AJ,2026-07-02T15:36:28.932768,13.15547705,.0001825,87.9000,256.1183,116.4747,243.6571,0,U,48799,999,24645,.52295E-3,.21E-5,0
ONEWEB-0215,2021-045AK,2026-07-02T14:53:07.719936,13.15548422,.0002046,87.9007,256.1078,119.0676,241.0660,0,U,48800,999,24632,-.27737E-3,-.92E-6,0
ONEWEB-0216,2021-045AL,2026-07-02T11:27:46.366272,13.15547720,.0002012,87.9003,256.1503,98.1141,262.0217,0,U,48801,999,24631,-.98454E-4,-.24E-6,0
ONEWEB-0239,2021-045AM,2026-07-02T11:34:37.002144,13.15547566,.0002313,87.8991,256.1544,120.6462,239.4896,0,U,48802,999,24635,-.9596E-4,-.23E-6,0
ONEWEB-0249,2021-060A,2026-07-02T13:21:00.535680,13.16596071,.0002124,87.9085,225.7261,97.7566,262.3806,0,U,48967,999,24163,.62355E-4,.37E-6,0
ONEWEB-0250,2021-060B,2026-07-02T13:14:54.458016,13.25834979,.0003093,87.9085,223.4329,98.9844,261.1642,0,U,48968,999,24225,.94199E-4,.55E-6,0
ONEWEB-0252,2021-060D,2026-07-02T12:16:03.657216,13.16595071,.00018,87.9088,225.7270,93.9801,266.1535,0,U,48970,999,24167,.11098E-3,.55E-6,0
ONEWEB-0253,2021-060E,2026-07-02T13:49:32.412576,13.16594630,.0002161,87.9086,225.7195,97.7137,262.4239,0,U,48971,999,24161,.80272E-4,.44E-6,0
ONEWEB-0254,2021-060F,2026-07-02T14:03:12.701088,13.16593462,.0002166,87.9088,225.7153,104.0500,256.0872,0,U,48972,999,24161,-.21254E-3,-.68E-6,0
ONEWEB-0255,2021-060G,2026-07-02T13:08:29.505408,13.16593604,.0002068,87.9086,225.7295,100.8937,259.2427,0,U,48973,999,24168,-.16242E-3,-.49E-6,0
ONEWEB-0256,2021-060H,2026-07-02T08:17:48.643296,13.16594214,.0002012,87.9082,225.7729,92.6667,267.4694,0,U,48974,999,24162,.3304E-4,.25E-6,0
ONEWEB-0257,2021-060J,2026-07-02T12:43:24.471840,13.16593494,.0001949,87.9088,225.7241,98.3292,261.8060,0,U,48975,999,24160,.43432E-4,.29E-6,0
ONEWEB-0258,2021-060K,2026-07-02T12:45:41.586048,13.16593657,.0002135,87.9091,225.7362,96.9297,263.2077,0,U,48976,999,24161,-.14131E-3,-.41E-6,0
ONEWEB-0259,2021-060L,2026-07-02T12:36:34.267968,13.16593505,.0002178,87.9079,225.7354,99.2944,260.8433,0,U,48977,999,24164,-.16695E-3,-.51E-6,0
ONEWEB-0260,2021-060M,2026-07-02T12:24:01.633248,13.16595179,.0001738,87.9079,225.7385,88.1783,271.9546,0,U,48978,999,24162,.33185E-4,.26E-6,0
ONEWEB-0261,2021-060N,2026-07-02T13:30:09.199872,13.16593447,.0001846,87.9083,225.7301,103.5002,256.6334,0,U,48979,999,24168,.2371E-3,.103E-5,0
ONEWEB-0262,2021-060P,2026-07-02T13:01:38.931744,13.16593674,.0002281,87.9086,225.7204,100.9067,259.2320,0,U,48980,999,24164,-.76656E-4,-.16E-6,0
ONEWEB-0263,2021-060Q,2026-07-02T13:47:14.695296,13.16593662,.0002007,87.9087,225.7257,105.3223,254.8130,0,U,48981,999,24161,-.11396E-3,-.31E-6,0
ONEWEB-0264,2021-060R,2026-07-02T12:51:22.683744,13.16596232,.0001907,87.9085,225.7363,96.9811,263.1537,0,U,48982,999,24161,-.13842E-3,-.4E-6,0
ONEWEB-0266,2021-060T,2026-07-02T13:22:10.511904,13.16594706,.0002178,87.9086,225.7229,95.0180,265.1199,0,U,48984,999,24160,.17978E-3,.82E-6,0
ONEWEB-0267,2021-060U,2026-07-02T04:30:57.152736,13.16593694,.00018831,87.9087,225.7926,100.5982,259.5361,0,U,48985,999,24156,-.29945329E-4,.1E-7,0
ONEWEB-0268,2021-060V,2026-07-02T03:45:20.824992,13.16593317,.000198,87.9088,225.8086,92.8245,267.3112,0,U,48986,999,24182,-.16347591E-3,-.5E-6,0
ONEWEB-0269,2021-060W,2026-07-02T12:25:10.165728,13.16594169,.0002009,87.9081,225.7380,89.3894,270.7467,0,U,48987,999,24164,-.17887E-4,.6E-7,0
ONEWEB-0270,2021-060X,2026-07-02T12:50:15.186336,13.16593616,.0002172,87.9091,225.7356,105.7604,254.3767,0,U,48988,999,24168,-.27018E-3,-.9E-6,0
ONEWEB-0271,2021-060Y,2026-07-02T08:53:08.571840,13.16594605,.0001982,87.9084,225.7574,102.0783,258.0570,0,U,48989,999,24166,-.31314E-3,-.107E-5,0
ONEWEB-0272,2021-060Z,2026-07-02T13:03:56.801088,13.16594438,.000176,87.9079,225.7346,94.7448,265.3884,0,U,48990,999,24163,.62905E-4,.37E-6,0
ONEWEB-0273,2021-060AA,2026-07-02T13:35:50.853120,13.16593795,.0002064,87.9088,225.7300,100.1650,259.9713,0,U,48991,999,24161,-.12656E-3,-.36E-6,0
ONEWEB-0274,2021-060AB,2026-07-02T12:22:53.118048,13.16607447,.0001753,87.9078,225.7409,91.3600,268.7731,0,U,48992,999,24164,-.65521E-2,-.2492E-4,0
ONEWEB-0275,2021-060AC,2026-07-02T13:56:22.511904,13.16594625,.0001951,87.9091,225.7184,96.5058,263.6295,0,U,48993,999,24158,-.69742E-4,-.14E-6,0
